[Satellite]
VERSION=1.1
NAME=INTERCOSMOS 25
NICKNAME=INTERCOSMOS 25
TLE1=1 21819U 91086A   17186.14758188  .00000591  00000-0  10864-3 0  9997
TLE2=2 21819  82.5568  52.2176 1525158  48.7011 323.5641 12.04523486114441
